SL-3 R/B                
1 13403U 82079B   25365.46257352  .00009070  00000+0  37149-3 0  9994
2 13403  81.1475 273.5889 0026511  38.8343 321.4788 15.23838841367300
SL-14 R/B               
1 13553U 82092B   25365.52742074  .00000889  00000+0  97167-4 0  9998
2 13553  82.5669 205.1406 0020703 163.3606 256.8653 14.86576626318806
SL-3 R/B                
1 13819U 83010B   25365.31036698  .00021369  00000+0  46499-3 0  9996
2 13819  81.1053  85.9429 0016294 284.5588  75.3847 15.44026265347385
SL-3 R/B                
1 14208U 83075B   25365.48029141  .00016406  00000+0  45712-3 0  9996
2 14208  97.6105   2.5986 0024391 111.5883 248.7963 15.36563585319673
COSMOS 1536             
1 14699U 84013A   25365.47026301  .00011034  00000+0  46953-3 0  9997
2 14699  82.5444 175.5853 0014958 158.4444 201.7426 15.22773474262238
SL-14 R/B               
1 14820U 84027B   25365.34387247  .00000923  00000+0  10290-3 0  9993
2 14820  82.5427 309.1100 0017438 195.0522 165.0178 14.85897578237480
SL-8 R/B                
1 15483U 85006B   25365.47784931  .00000550  00000+0  19131-3 0  9991
2 15483  74.0458  26.6583 0019469 315.2895 151.6948 14.37734829144228
SL-12 R/B(2)            
1 15772U 85042D   25365.40978384  .00000199  00000+0  11086-3 0  9992
2 15772  71.1066 231.9788 0037087 234.0469 299.0249 14.21957823104682
SL-14 R/B               
1 15945U 85069B   25365.28214086  .00000909  00000+0  10001-3 0  9996
2 15945  82.5272  89.2717 0020110  61.3992 298.9245 14.86348478162674
SL-16 R/B               
1 16182U 85097B   25365.22744872 -.00000021  00000+0  13645-4 0  9990
2 16182  71.0030 284.6821 0007796 343.0113 169.1922 14.16586668 77539
SL-14 R/B               
1 16496U 86006B   25365.41102719  .00001112  00000+0  11549-3 0  9999
2 16496  82.5278 323.9829 0077732 138.1272 222.5927 14.86698854139063
COSMOS 1743             
1 16719U 86034A   25365.47282955  .00044504  00000+0  70097-3 0  9990
2 16719  82.5349 145.1180 0005123 177.8517 182.2759 15.53367508169647
