CCSDS_OMM_VERS = 2.0
CREATION_DATE  = 
ORIGINATOR     = 

OBJECT_NAME    = SL-3 R/B
OBJECT_ID      = 1982-079B
CENTER_NAME    = EARTH
REF_FRAME      = TEME
TIME_SYSTEM    = UTC
MEAN_ELEMENT_THEORY = SGP/SGP4

EPOCH          = 2025-12-31T11:06:06.352128
MEAN_MOTION    = 15.23838841
ECCENTRICITY   = .0026511
INCLINATION    = 81.1475
RA_OF_ASC_NODE = 273.5889
ARG_OF_PERICENTER = 38.8343
MEAN_ANOMALY   = 321.4788

EPHEMERIS_TYPE = 0
CLASSIFICATION_TYPE = U
NORAD_CAT_ID   = 13403
ELEMENT_SET_NO = 999
REV_AT_EPOCH   = 36730
BSTAR          = .37149E-3
MEAN_MOTION_DOT = .907E-4
MEAN_MOTION_DDOT = 0

CCSDS_OMM_VERS = 2.0
CREATION_DATE  = 
ORIGINATOR     = 

OBJECT_NAME    = SL-14 R/B
OBJECT_ID      = 1982-092B
CENTER_NAME    = EARTH
REF_FRAME      = TEME
TIME_SYSTEM    = UTC
MEAN_ELEMENT_THEORY = SGP/SGP4

EPOCH          = 2025-12-31T12:39:29.151936
MEAN_MOTION    = 14.86576626
ECCENTRICITY   = .0020703
INCLINATION    = 82.5669
RA_OF_ASC_NODE = 205.1406
ARG_OF_PERICENTER = 163.3606
MEAN_ANOMALY   = 256.8653

EPHEMERIS_TYPE = 0
CLASSIFICATION_TYPE = U
NORAD_CAT_ID   = 13553
ELEMENT_SET_NO = 999
REV_AT_EPOCH   = 31880
BSTAR          = .97167E-4
MEAN_MOTION_DOT = .889E-5
MEAN_MOTION_DDOT = 0

CCSDS_OMM_VERS = 2.0
CREATION_DATE  = 
ORIGINATOR     = 

OBJECT_NAME    = SL-3 R/B
OBJECT_ID      = 1983-010B
CENTER_NAME    = EARTH
REF_FRAME      = TEME
TIME_SYSTEM    = UTC
MEAN_ELEMENT_THEORY = SGP/SGP4

EPOCH          = 2025-12-31T07:26:55.707072
MEAN_MOTION    = 15.44026265
ECCENTRICITY   = .0016294
INCLINATION    = 81.1053
RA_OF_ASC_NODE = 85.9429
ARG_OF_PERICENTER = 284.5588
MEAN_ANOMALY   = 75.3847

EPHEMERIS_TYPE = 0
CLASSIFICATION_TYPE = U
NORAD_CAT_ID   = 13819
ELEMENT_SET_NO = 999
REV_AT_EPOCH   = 34738
BSTAR          = .46499E-3
MEAN_MOTION_DOT = .21369E-3
MEAN_MOTION_DDOT = 0

CCSDS_OMM_VERS = 2.0
CREATION_DATE  = 
ORIGINATOR     = 

OBJECT_NAME    = SL-3 R/B
OBJECT_ID      = 1983-075B
CENTER_NAME    = EARTH
REF_FRAME      = TEME
TIME_SYSTEM    = UTC
MEAN_ELEMENT_THEORY = SGP/SGP4

EPOCH          = 2025-12-31T11:31:37.177824
MEAN_MOTION    = 15.36563585
ECCENTRICITY   = .0024391
INCLINATION    = 97.6105
RA_OF_ASC_NODE = 2.5986
ARG_OF_PERICENTER = 111.5883
MEAN_ANOMALY   = 248.7963

EPHEMERIS_TYPE = 0
CLASSIFICATION_TYPE = U
NORAD_CAT_ID   = 14208
ELEMENT_SET_NO = 999
REV_AT_EPOCH   = 31967
BSTAR          = .45712E-3
MEAN_MOTION_DOT = .16406E-3
MEAN_MOTION_DDOT = 0

CCSDS_OMM_VERS = 2.0
CREATION_DATE  = 
ORIGINATOR     = 

OBJECT_NAME    = COSMOS 1536
OBJECT_ID      = 1984-013A
CENTER_NAME    = EARTH
REF_FRAME      = TEME
TIME_SYSTEM    = UTC
MEAN_ELEMENT_THEORY = SGP/SGP4

EPOCH          = 2025-12-31T11:17:10.724064
MEAN_MOTION    = 15.22773474
ECCENTRICITY   = .0014958
INCLINATION    = 82.5444
RA_OF_ASC_NODE = 175.5853
ARG_OF_PERICENTER = 158.4444
MEAN_ANOMALY   = 201.7426

EPHEMERIS_TYPE = 0
CLASSIFICATION_TYPE = U
NORAD_CAT_ID   = 14699
ELEMENT_SET_NO = 999
REV_AT_EPOCH   = 26223
BSTAR          = .46953E-3
MEAN_MOTION_DOT = .11034E-3
MEAN_MOTION_DDOT = 0

CCSDS_OMM_VERS = 2.0
CREATION_DATE  = 
ORIGINATOR     = 

OBJECT_NAME    = SL-14 R/B
OBJECT_ID      = 1984-027B
CENTER_NAME    = EARTH
REF_FRAME      = TEME
TIME_SYSTEM    = UTC
MEAN_ELEMENT_THEORY = SGP/SGP4

EPOCH          = 2025-12-31T08:15:10.581408
MEAN_MOTION    = 14.85897578
ECCENTRICITY   = .0017438
INCLINATION    = 82.5427
RA_OF_ASC_NODE = 309.1100
ARG_OF_PERICENTER = 195.0522
MEAN_ANOMALY   = 165.0178

EPHEMERIS_TYPE = 0
CLASSIFICATION_TYPE = U
NORAD_CAT_ID   = 14820
ELEMENT_SET_NO = 999
REV_AT_EPOCH   = 23748
BSTAR          = .1029E-3
MEAN_MOTION_DOT = .923E-5
MEAN_MOTION_DDOT = 0

CCSDS_OMM_VERS = 2.0
CREATION_DATE  = 
ORIGINATOR     = 

OBJECT_NAME    = SL-8 R/B
OBJECT_ID      = 1985-006B
CENTER_NAME    = EARTH
REF_FRAME      = TEME
TIME_SYSTEM    = UTC
MEAN_ELEMENT_THEORY = SGP/SGP4

EPOCH          = 2025-12-31T11:28:06.180384
MEAN_MOTION    = 14.37734829
ECCENTRICITY   = .0019469
INCLINATION    = 74.0458
RA_OF_ASC_NODE = 26.6583
ARG_OF_PERICENTER = 315.2895
MEAN_ANOMALY   = 151.6948

EPHEMERIS_TYPE = 0
CLASSIFICATION_TYPE = U
NORAD_CAT_ID   = 15483
ELEMENT_SET_NO = 999
REV_AT_EPOCH   = 14422
BSTAR          = .19131E-3
MEAN_MOTION_DOT = .55E-5
MEAN_MOTION_DDOT = 0

CCSDS_OMM_VERS = 2.0
CREATION_DATE  = 
ORIGINATOR     = 

OBJECT_NAME    = SL-12 R/B(2)
OBJECT_ID      = 1985-042D
CENTER_NAME    = EARTH
REF_FRAME      = TEME
TIME_SYSTEM    = UTC
MEAN_ELEMENT_THEORY = SGP/SGP4

EPOCH          = 2025-12-31T09:50:05.323776
MEAN_MOTION    = 14.21957823
ECCENTRICITY   = .0037087
INCLINATION    = 71.1066
RA_OF_ASC_NODE = 231.9788
ARG_OF_PERICENTER = 234.0469
MEAN_ANOMALY   = 299.0249

EPHEMERIS_TYPE = 0
CLASSIFICATION_TYPE = U
NORAD_CAT_ID   = 15772
ELEMENT_SET_NO = 999
REV_AT_EPOCH   = 10468
BSTAR          = .11086E-3
MEAN_MOTION_DOT = .199E-5
MEAN_MOTION_DDOT = 0

CCSDS_OMM_VERS = 2.0
CREATION_DATE  = 
ORIGINATOR     = 

OBJECT_NAME    = SL-14 R/B
OBJECT_ID      = 1985-069B
CENTER_NAME    = EARTH
REF_FRAME      = TEME
TIME_SYSTEM    = UTC
MEAN_ELEMENT_THEORY = SGP/SGP4

EPOCH          = 2025-12-31T06:46:16.970304
MEAN_MOTION    = 14.86348478
ECCENTRICITY   = .002011
INCLINATION    = 82.5272
RA_OF_ASC_NODE = 89.2717
ARG_OF_PERICENTER = 61.3992
MEAN_ANOMALY   = 298.9245

EPHEMERIS_TYPE = 0
CLASSIFICATION_TYPE = U
NORAD_CAT_ID   = 15945
ELEMENT_SET_NO = 999
REV_AT_EPOCH   = 16267
BSTAR          = .10001E-3
MEAN_MOTION_DOT = .909E-5
MEAN_MOTION_DDOT = 0

CCSDS_OMM_VERS = 2.0
CREATION_DATE  = 
ORIGINATOR     = 

OBJECT_NAME    = SL-16 R/B
OBJECT_ID      = 1985-097B
CENTER_NAME    = EARTH
REF_FRAME      = TEME
TIME_SYSTEM    = UTC
MEAN_ELEMENT_THEORY = SGP/SGP4

EPOCH          = 2025-12-31T05:27:31.569408
MEAN_MOTION    = 14.16586668
ECCENTRICITY   = .0007796
INCLINATION    = 71.0030
RA_OF_ASC_NODE = 284.6821
ARG_OF_PERICENTER = 343.0113
MEAN_ANOMALY   = 169.1922

EPHEMERIS_TYPE = 0
CLASSIFICATION_TYPE = U
NORAD_CAT_ID   = 16182
ELEMENT_SET_NO = 999
REV_AT_EPOCH   = 7753
BSTAR          = .13645E-4
MEAN_MOTION_DOT = -.21E-6
MEAN_MOTION_DDOT = 0

CCSDS_OMM_VERS = 2.0
CREATION_DATE  = 
ORIGINATOR     = 

OBJECT_NAME    = SL-14 R/B
OBJECT_ID      = 1986-006B
CENTER_NAME    = EARTH
REF_FRAME      = TEME
TIME_SYSTEM    = UTC
MEAN_ELEMENT_THEORY = SGP/SGP4

EPOCH          = 2025-12-31T09:51:52.749216
MEAN_MOTION    = 14.86698854
ECCENTRICITY   = .0077732
INCLINATION    = 82.5278
RA_OF_ASC_NODE = 323.9829
ARG_OF_PERICENTER = 138.1272
MEAN_ANOMALY   = 222.5927

EPHEMERIS_TYPE = 0
CLASSIFICATION_TYPE = U
NORAD_CAT_ID   = 16496
ELEMENT_SET_NO = 999
REV_AT_EPOCH   = 13906
BSTAR          = .11549E-3
MEAN_MOTION_DOT = .1112E-4
MEAN_MOTION_DDOT = 0

CCSDS_OMM_VERS = 2.0
CREATION_DATE  = 
ORIGINATOR     = 

OBJECT_NAME    = COSMOS 1743
OBJECT_ID      = 1986-034A
CENTER_NAME    = EARTH
REF_FRAME      = TEME
TIME_SYSTEM    = UTC
MEAN_ELEMENT_THEORY = SGP/SGP4

EPOCH          = 2025-12-31T11:20:52.473120
MEAN_MOTION    = 15.53367508
ECCENTRICITY   = .0005123
INCLINATION    = 82.5349
RA_OF_ASC_NODE = 145.1180
ARG_OF_PERICENTER = 177.8517
MEAN_ANOMALY   = 182.2759

EPHEMERIS_TYPE = 0
CLASSIFICATION_TYPE = U
NORAD_CAT_ID   = 16719
ELEMENT_SET_NO = 999
REV_AT_EPOCH   = 16964
BSTAR          = .70097E-3
MEAN_MOTION_DOT = .44504E-3
MEAN_MOTION_DDOT = 0

